ORS-5 SENSORSAT         
1 42921U 17050A   26068.65161006  .00003656  00000+0  21756-3 0  9991
2 42921   0.0472 167.0860 0010549  19.2794 173.6211 15.00514080466070
STARLINK-6209           
1 56877U 23083B   26068.40157057  .00000071  00000+0  20343-4 0  9993
2 56877  43.0042  83.6363 0001281 266.0049  94.0647 15.02533741151622
